SPACEBEE-7              
1 43816U 18099BL  24182.17668072  .00017136  00000+0  99860-3 0  9995
2 43816  97.5482 245.7205 0008958 234.5138 125.5257 15.12026999304378
SPACEBEE-6              
1 43818U 18099BN  24182.15200524  .00041800  00000+0  17029-2 0  9990
2 43818  97.5401 251.2682 0008219 230.7088 129.3421 15.24319410304881
SPACEBEE-167            
1 55087U 23001CG  24181.90767704  .00089139  00000+0  17357-2 0  9991
2 55087  97.4187 247.7806 0009516 117.2067 243.0154 15.47193062 82997
SPACEBEE-163            
1 55089U 23001CJ  24182.15553853  .00147522  00000+0  19071-2 0  9995
2 55089  97.4105 249.8782 0006746 124.6679 235.5214 15.58412843 83164
SPACEBEE-164            
1 55091U 23001CL  24181.74708805  .00106399  00000+0  18503-2 0  9997
2 55091  97.4172 248.2701 0008965 117.0308 243.1860 15.50376274 83010
SPACEBEE-166            
1 55092U 23001CM  24181.92398994  .00144974  00000+0  20111-2 0  9991
2 55092  97.4143 249.7892 0008025 117.7206 242.4863 15.56513818 83138
SPACEBEE-165            
1 55094U 23001CP  24182.14173116  .00107916  00000+0  17462-2 0  9995
2 55094  97.4177 249.0934 0007675 120.9625 239.2383 15.52411718 83108
SPACEBEE-162            
1 55095U 23001CQ  24182.19294979  .00100359  00000+0  17096-2 0  9999
2 55095  97.4172 248.8971 0009045 115.1464 245.0727 15.50982790 83098
SPACEBEE-161            
1 55096U 23001CR  24182.13799946  .00110640  00000+0  18408-2 0  9990
2 55096  97.4175 248.9672 0008281 115.1271 245.0841 15.51616099 83092
SPACEBEE-160            
1 55097U 23001CS  24181.74858098  .00119564  00000+0  19252-2 0  9993
2 55097  97.4163 248.7034 0007991 117.5806 242.6260 15.52503243 83047
SPACEBEE-156            
1 55099U 23001CU  24182.14678708  .00111821  00000+0  17612-2 0  9994
2 55099  97.4176 249.2480 0008552 118.3039 241.9077 15.53141965 83111
SPACEBEE-158            
1 55100U 23001CV  24181.74708265  .00126254  00000+0  19840-2 0  9995
2 55100  97.4185 248.7820 0008251 120.0769 240.1303 15.53155356 83046
SPACEBEE-159            
1 55101U 23001CW  24181.90426229  .00156778  00000+0  20761-2 0  9999
2 55101  97.4145 249.8718 0007609 119.2539 240.9478 15.57730156 83134
SPACEBEE-157            
1 55102U 23001CX  24181.90036069  .00155110  00000+0  20480-2 0  9996
2 55102  97.4132 249.9319 0007283 122.1640 238.0323 15.57817291 83147
SPACEBEE-179            
1 56969U 23084AP  24181.89652906  .00057489  00000+0  15722-2 0  9994
2 56969  97.5387 304.2163 0007678 299.7271  60.3209 15.37140144 58294
SPACEBEE-177            
1 56972U 23084AS  24181.88117182  .00067682  00000+0  17184-2 0  9999
2 56972  97.5371 304.6820 0007719 293.8703  66.1733 15.39385519 58325
SPACEBEE-178            
1 56973U 23084AT  24181.91823539  .00059865  00000+0  16288-2 0  9992
2 56973  97.5409 304.2737 0008003 301.3612  58.6848 15.37285607 58296
SPACEBEE-176            
1 56975U 23084AV  24181.87662252  .00061841  00000+0  16433-2 0  9991
2 56975  97.5389 304.4054 0007898 298.1582  61.8864 15.38009008 58305
SPACEBEE-174            
1 56976U 23084AW  24181.82174527  .00064920  00000+0  16913-2 0  9994
2 56976  97.5386 304.4821 0007876 296.6618  63.3820 15.38605773 58304
SPACEBEE-173            
1 56978U 23084AY  24181.86870510  .00064045  00000+0  16600-2 0  9996
2 56978  97.5386 304.5802 0007783 296.9121  63.1328 15.38767490 58312
SPACEBEE-172            
1 56979U 23084AZ  24181.88440840  .00065653  00000+0  16994-2 0  9990
2 56979  97.5375 304.5301 0007910 297.8403  62.2040 15.38800388 58315
SPACEBEE-171            
1 56980U 23084BA  24181.91585936  .00063134  00000+0  16260-2 0  9990
2 56980  97.5382 304.6675 0008080 295.6532  64.3878 15.38965129 58326
SPACEBEE-169            
1 56982U 23084BC  24181.90315390  .00067805  00000+0  17245-2 0  9999
2 56982  97.5367 304.4675 0008158 294.9621  65.0777 15.39328722 58314
SPACEBEE-170            
1 56983U 23084BD  24181.91054058  .00065048  00000+0  17092-2 0  9999
2 56983  97.5422 304.5926 0007831 293.5128  66.5293 15.38341808 58319
SPACEBEE-168            
1 56984U 23084BE  24181.84866387  .00095916  00000+0  20224-2 0  9996
2 56984  97.5334 305.3646 0008490 285.9689  74.0624 15.44845461 58367
SPACEBEE-175            
1 56985U 23084BF  24181.92445932  .00066250  00000+0  17090-2 0  9991
2 56985  97.5397 304.7091 0008542 300.8589  59.1815 15.38897508 58322
